{"type": "FeatureCollection", "features": [ {"type": "Feature", "properties": {"norad_id": 66628, "name": "STARLINK-35862", "group": "last-30-days", "lat": 39.4565556649207, "lon": -29.696098942421983, "alt_km": 408.44817898666224, "timestamp": "2025-12-12T11:38:30.170444+00:00", "meta": {"OBJECT_NAME": "STARLINK-35862", "OBJECT_ID": "2025-271M", "EPOCH": "2025-12-12T04:00:01.998720", "MEAN_MOTION": 15.52232983, "ECCENTRICITY": 9.65e-05, "INCLINATION": 53.1594, "RA_OF_ASC_NODE": 189.9352, "ARG_OF_PERICENTER": 78.6728, "MEAN_ANOMALY": 69.2926, "EPHEMERIS_TYPE": 0, "CLASSIFICATION_TYPE": "U", "NORAD_CAT_ID": 66628, "ELEMENT_SET_NO": 999, "REV_AT_EPOCH": 415, "BSTAR": -0.034227, "MEAN_MOTION_DOT": -0.01866612, "MEAN_MOTION_DDOT": 0}, "tle": {"line1": "1 66628U 25271M   25346.16668980 -.01866612  00000+0 -34227-1 0  9999", "line2": "2 66628  53.1594 189.9352 0000965  78.6728  69.2926 15.52232983  4156"}}, "geometry": {"type": "Point", "coordinates": [-29.696098942421983, 39.4565556649207]}}, {"type": "Feature", "properties": {"norad_id": 66629, "name": "STARLINK-35956", "group": "last-30-days", "lat": 38.2310567267076, "lon": -27.79911136906647, "alt_km": 408.7013419878749, "timestamp": "2025-12-12T11:38:30.170454+00:00", "meta": {"OBJECT_NAME": "STARLINK-35956", "OBJECT_ID": "2025-271N", "EPOCH": "2025-12-12T04:00:01.998720", "MEAN_MOTION": 15.52237064, "ECCENTRICITY": 9.49e-05, "INCLINATION": 53.1593, "RA_OF_ASC_NODE": 189.9317, "ARG_OF_PERICENTER": 74.3555, "MEAN_ANOMALY": 75.5261, "EPHEMERIS_TYPE": 0, "CLASSIFICATION_TYPE": "U", "NORAD_CAT_ID": 66629, "ELEMENT_SET_NO": 999, "REV_AT_EPOCH": 415, "BSTAR": -0.034339, "MEAN_MOTION_DOT": -0.01872244, "MEAN_MOTION_DDOT": 0}, "tle": {"line1": "1 66629U 25271N   25346.16668980 -.01872244  00000+0 -34339-1 0  9992", "line2": "2 66629  53.1593 189.9317 0000949  74.3555  75.5261 15.52237064  4157"}}, "geometry": {"type": "Point", "coordinates": [-27.79911136906647, 38.2310567267076]}}, {"type": "Feature", "properties": {"norad_id": 66630, "name": "STARLINK-35949", "group": "last-30-days", "lat": 36.97958659096382, "lon": -25.97219336362478, "alt_km": 408.847850211544, "timestamp": "2025-12-12T11:38:30.170464+00:00", "meta": {"OBJECT_NAME": "STARLINK-35949", "OBJECT_ID": "2025-271P", "EPOCH": "2025-12-12T04:00:01.998720", "MEAN_MOTION": 15.52243072, "ECCENTRICITY": 9.01e-05, "INCLINATION": 53.1593, "RA_OF_ASC_NODE": 189.9269, "ARG_OF_PERICENTER": 87.0308, "MEAN_ANOMALY": 64.7652, "EPHEMERIS_TYPE": 0, "CLASSIFICATION_TYPE": "U", "NORAD_CAT_ID": 66630, "ELEMENT_SET_NO": 999, "REV_AT_EPOCH": 415, "BSTAR": -0.034597, "MEAN_MOTION_DOT": -0.0188499, "MEAN_MOTION_DDOT": 0}, "tle": {"line1": "1 66630U 25271P   25346.16668980 -.01884990  00000+0 -34597-1 0  9991", "line2": "2 66630  53.1593 189.9269 0000901  87.0308  64.7652 15.52243072  4150"}}, "geometry": {"type": "Point", "coordinates": [-25.97219336362478, 36.97958659096382]}}, {"type": "Feature", "properties": {"norad_id": 66631, "name": "STARLINK-35965", "group": "last-30-days", "lat": 35.696449702514336, "lon": -24.197139646342176, "alt_km": 409.2481898599026, "timestamp": "2025-12-12T11:38:30.170475+00:00", "meta": {"OBJECT_NAME": "STARLINK-35965", "OBJECT_ID": "2025-271Q", "EPOCH": "2025-12-12T04:00:01.998720", "MEAN_MOTION": 15.52237276, "ECCENTRICITY": 8.53e-05, "INCLINATION": 53.1597, "RA_OF_ASC_NODE": 189.9236, "ARG_OF_PERICENTER": 65.8627, "MEAN_ANOMALY": 87.8526, "EPHEMERIS_TYPE": 0, "CLASSIFICATION_TYPE": "U", "NORAD_CAT_ID": 66631, "ELEMENT_SET_NO": 999, "REV_AT_EPOCH": 415, "BSTAR": -0.034337, "MEAN_MOTION_DOT": -0.0187208, "MEAN_MOTION_DDOT": 0}, "tle": {"line1": "1 66631U 25271Q   25346.16668980 -.01872080  00000+0 -34337-1 0  9991", "line2": "2 66631  53.1597 189.9236 0000853  65.8627  87.8526 15.52237276  4158"}}, "geometry": {"type": "Point", "coordinates": [-24.197139646342176, 35.696449702514336]}}, {"type": "Feature", "properties": {"norad_id": 66632, "name": "STARLINK-35973", "group": "last-30-days", "lat": 34.38863335509946, "lon": -22.48158147148601, "alt_km": 409.4414548622426, "timestamp": "2025-12-12T11:38:30.170486+00:00", "meta": {"OBJECT_NAME": "STARLINK-35973", "OBJECT_ID": "2025-271R", "EPOCH": "2025-12-12T04:00:01.998720", "MEAN_MOTION": 15.52238944, "ECCENTRICITY": 9.27e-05, "INCLINATION": 53.1595, "RA_OF_ASC_NODE": 189.9193, "ARG_OF_PERICENTER": 67.5622, "MEAN_ANOMALY": 88.0711, "EPHEMERIS_TYPE": 0, "CLASSIFICATION_TYPE": "U", "NORAD_CAT_ID": 66632, "ELEMENT_SET_NO": 999, "REV_AT_EPOCH": 409, "BSTAR": -0.034403, "MEAN_MOTION_DOT": -0.01875436, "MEAN_MOTION_DDOT": 0}, "tle": {"line1": "1 66632U 25271R   25346.16668980 -.01875436  00000+0 -34403-1 0  9994", "line2": "2 66632  53.1595 189.9193 0000927  67.5622  88.0711 15.52238944  4090"}}, "geometry": {"type": "Point", "coordinates": [-22.48158147148601, 34.38863335509946]}}, {"type": "Feature", "properties": {"norad_id": 66633, "name": "STARLINK-35948", "group": "last-30-days", "lat": 33.061658313218, "lon": -20.824646967367325, "alt_km": 409.6482130126151, "timestamp": "2025-12-12T11:38:30.170498+00:00", "meta": {"OBJECT_NAME": "STARLINK-35948", "OBJECT_ID": "2025-271S", "EPOCH": "2025-12-12T04:00:01.998720", "MEAN_MOTION": 15.5224455, "ECCENTRICITY": 8.72e-05, "INCLINATION": 53.1594, "RA_OF_ASC_NODE": 189.9147, "ARG_OF_PERICENTER": 73.57, "MEAN_ANOMALY": 83.9778, "EPHEMERIS_TYPE": 0, "CLASSIFICATION_TYPE": "U", "NORAD_CAT_ID": 66633, "ELEMENT_SET_NO": 999, "REV_AT_EPOCH": 415, "BSTAR": -0.034695, "MEAN_MOTION_DOT": -0.01923772, "MEAN_MOTION_DDOT": 0}, "tle": {"line1": "1 66633U 25271S   25346.16668980 -.01923772  00000+0 -34695-1 0  9995", "line2": "2 66633  53.1594 189.9147 0000872  73.5700  83.9778 15.52244550  4156"}}, "geometry": {"type": "Point", "coordinates": [-20.824646967367325, 33.061658313218]}}, {"type": "Feature", "properties": {"norad_id": 66634, "name": "STARLINK-35967", "group": "last-30-days", "lat": 31.711048031532048, "lon": -19.214395557264414, "alt_km": 409.86403995011824, "timestamp": "2025-12-12T11:38:30.170508+00:00", "meta": {"OBJECT_NAME": "STARLINK-35967", "OBJECT_ID": "2025-271T", "EPOCH": "2025-12-12T04:00:01.998720", "MEAN_MOTION": 15.52244121, "ECCENTRICITY": 9.37e-05, "INCLINATION": 53.1594, "RA_OF_ASC_NODE": 189.9104, "ARG_OF_PERICENTER": 73.0752, "MEAN_ANOMALY": 86.3877, "EPHEMERIS_TYPE": 0, "CLASSIFICATION_TYPE": "U", "NORAD_CAT_ID": 66634, "ELEMENT_SET_NO": 999, "REV_AT_EPOCH": 408, "BSTAR": -0.034638, "MEAN_MOTION_DOT": -0.01887044, "MEAN_MOTION_DDOT": 0}, "tle": {"line1": "1 66634U 25271T   25346.16668980 -.01887044  00000+0 -34638-1 0  9994", "line2": "2 66634  53.1594 189.9104 0000937  73.0752  86.3877 15.52244121  4087"}}, "geometry": {"type": "Point", "coordinates": [-19.214395557264414, 31.711048031532048]}}, {"type": "Feature", "properties": {"norad_id": 66635, "name": "STARLINK-35955", "group": "last-30-days", "lat": 30.33852940086083, "lon": -17.648226949610695, "alt_km": 410.2106416845818, "timestamp": "2025-12-12T11:38:30.170518+00:00", "meta": {"OBJECT_NAME": "STARLINK-35955", "OBJECT_ID": "2025-271U", "EPOCH": "2025-12-12T04:00:01.998720", "MEAN_MOTION": 15.52234575, "ECCENTRICITY": 9.34e-05, "INCLINATION": 53.1593, "RA_OF_ASC_NODE": 189.9064, "ARG_OF_PERICENTER": 62.1099, "MEAN_ANOMALY": 99.2745, "EPHEMERIS_TYPE": 0, "CLASSIFICATION_TYPE": "U", "NORAD_CAT_ID": 66635, "ELEMENT_SET_NO": 999, "REV_AT_EPOCH": 415, "BSTAR": -0.034271, "MEAN_MOTION_DOT": -0.01868808, "MEAN_MOTION_DDOT": 0}, "tle": {"line1": "1 66635U 25271U   25346.16668980 -.01868808  00000+0 -34271-1 0  9995", "line2": "2 66635  53.1593 189.9064 0000934  62.1099  99.2745 15.52234575  4159"}}, "geometry": {"type": "Point", "coordinates": [-17.648226949610695, 30.33852940086083]}}, {"type": "Feature", "properties": {"norad_id": 66636, "name": "STARLINK-35968", "group": "last-30-days", "lat": 28.95051400577911, "lon": -16.129110928800195, "alt_km": 410.3694897338646, "timestamp": "2025-12-12T11:38:30.170528+00:00", "meta": {"OBJECT_NAME": "STARLINK-35968", "OBJECT_ID": "2025-271V", "EPOCH": "2025-12-12T04:00:01.998720", "MEAN_MOTION": 15.52233078, "ECCENTRICITY": 0.0001067, "INCLINATION": 53.1592, "RA_OF_ASC_NODE": 189.902, "ARG_OF_PERICENTER": 66.1188, "MEAN_ANOMALY": 97.1794, "EPHEMERIS_TYPE": 0, "CLASSIFICATION_TYPE": "U", "NORAD_CAT_ID": 66636, "ELEMENT_SET_NO": 999, "REV_AT_EPOCH": 415, "BSTAR": -0.034151, "MEAN_MOTION_DOT": -0.01863032, "MEAN_MOTION_DDOT": 0}, "tle": {"line1": "1 66636U 25271V   25346.16668980 -.01863032  00000+0 -34151-1 0  9997", "line2": "2 66636  53.1592 189.9020 0001067  66.1188  97.1794 15.52233078  4150"}}, "geometry": {"type": "Point", "coordinates": [-16.129110928800195, 28.95051400577911]}}, {"type": "Feature", "properties": {"norad_id": 66637, "name": "STARLINK-35953", "group": "last-30-days", "lat": 27.543937877546753, "lon": -14.647701174100762, "alt_km": 410.71923320950646, "timestamp": "2025-12-12T11:38:30.170540+00:00", "meta": {"OBJECT_NAME": "STARLINK-35953", "OBJECT_ID": "2025-271W", "EPOCH": "2025-12-12T04:00:01.998720", "MEAN_MOTION": 15.52254534, "ECCENTRICITY": 0.0001068, "INCLINATION": 53.1591, "RA_OF_ASC_NODE": 189.8985, "ARG_OF_PERICENTER": 60.946, "MEAN_ANOMALY": 104.2669, "EPHEMERIS_TYPE": 0, "CLASSIFICATION_TYPE": "U", "NORAD_CAT_ID": 66637, "ELEMENT_SET_NO": 999, "REV_AT_EPOCH": 415, "BSTAR": -0.035088, "MEAN_MOTION_DOT": -0.01944074, "MEAN_MOTION_DDOT": 0}, "tle": {"line1": "1 66637U 25271W   25346.16668980 -.01944074  00000+0 -35088-1 0  9994", "line2": "2 66637  53.1591 189.8985 0001068  60.9460 104.2669 15.52254534  4156"}}, "geometry": {"type": "Point", "coordinates": [-14.647701174100762, 27.543937877546753]}}]}